{"type": "FeatureCollection", "features": [ {"type": "Feature", "properties": {"norad_id": 66869, "name": "STARLINK-36092", "group": "last-30-days", "lat": -33.12391750566824, "lon": 8.387232195291228, "alt_km": 392.63782009647366, "timestamp": "2025-12-24T03:53:28.362755+00:00", "meta": {"OBJECT_NAME": "STARLINK-36092", "OBJECT_ID": "2025-281X", "EPOCH": "2025-12-23T20:00:01.000224", "MEAN_MOTION": 15.60412658, "ECCENTRICITY": 0.0001151, "INCLINATION": 43.0002, "RA_OF_ASC_NODE": 54.7808, "ARG_OF_PERICENTER": 273.3643, "MEAN_ANOMALY": 345.0704, "EPHEMERIS_TYPE": 0, "CLASSIFICATION_TYPE": "U", "NORAD_CAT_ID": 66869, "ELEMENT_SET_NO": 999, "REV_AT_EPOCH": 320, "BSTAR": -0.026832, "MEAN_MOTION_DOT": -0.0198935, "MEAN_MOTION_DDOT": 0}, "tle": {"line1": "1 66869U 25281X   25357.83334491 -.01989350  00000+0 -26832-1 0  9998", "line2": "2 66869  43.0002  54.7808 0001151 273.3643 345.0704 15.60412658  3200"}}, "geometry": {"type": "Point", "coordinates": [8.387232195291228, -33.12391750566824]}}, {"type": "Feature", "properties": {"norad_id": 66870, "name": "STARLINK-36114", "group": "last-30-days", "lat": -32.17384755313268, "lon": 10.362909296414887, "alt_km": 392.5182427200398, "timestamp": "2025-12-24T03:53:28.362787+00:00", "meta": {"OBJECT_NAME": "STARLINK-36114", "OBJECT_ID": "2025-281Y", "EPOCH": "2025-12-23T20:00:01.000224", "MEAN_MOTION": 15.60412255, "ECCENTRICITY": 0.0001348, "INCLINATION": 42.9999, "RA_OF_ASC_NODE": 54.7758, "ARG_OF_PERICENTER": 270.5455, "MEAN_ANOMALY": 349.8085, "EPHEMERIS_TYPE": 0, "CLASSIFICATION_TYPE": "U", "NORAD_CAT_ID": 66870, "ELEMENT_SET_NO": 999, "REV_AT_EPOCH": 307, "BSTAR": -0.026826, "MEAN_MOTION_DOT": -0.01989092, "MEAN_MOTION_DDOT": 0}, "tle": {"line1": "1 66870U 25281Y   25357.83334491 -.01989092  00000+0 -26826-1 0  9996", "line2": "2 66870  42.9999  54.7758 0001348 270.5455 349.8085 15.60412255  3079"}}, "geometry": {"type": "Point", "coordinates": [10.362909296414887, -32.17384755313268]}}, {"type": "Feature", "properties": {"norad_id": 66871, "name": "STARLINK-36095", "group": "last-30-days", "lat": -31.197282768802534, "lon": 12.290367874680987, "alt_km": 392.547186040857, "timestamp": "2025-12-24T03:53:28.362798+00:00", "meta": {"OBJECT_NAME": "STARLINK-36095", "OBJECT_ID": "2025-281Z", "EPOCH": "2025-12-23T20:00:01.000224", "MEAN_MOTION": 15.60413463, "ECCENTRICITY": 0.0001185, "INCLINATION": 43.0001, "RA_OF_ASC_NODE": 54.7704, "ARG_OF_PERICENTER": 272.3829, "MEAN_ANOMALY": 349.8863, "EPHEMERIS_TYPE": 0, "CLASSIFICATION_TYPE": "U", "NORAD_CAT_ID": 66871, "ELEMENT_SET_NO": 999, "REV_AT_EPOCH": 320, "BSTAR": -0.026837, "MEAN_MOTION_DOT": -0.0198981, "MEAN_MOTION_DDOT": 0}, "tle": {"line1": "1 66871U 25281Z   25357.83334491 -.01989810  00000+0 -26837-1 0  9997", "line2": "2 66871  43.0001  54.7704 0001185 272.3829 349.8863 15.60413463  3202"}}, "geometry": {"type": "Point", "coordinates": [12.290367874680987, -31.197282768802534]}}, {"type": "Feature", "properties": {"norad_id": 66872, "name": "STARLINK-36082", "group": "last-30-days", "lat": -30.191309953343847, "lon": 14.180318361965437, "alt_km": 392.4863057185603, "timestamp": "2025-12-24T03:53:28.362809+00:00", "meta": {"OBJECT_NAME": "STARLINK-36082", "OBJECT_ID": "2025-281AA", "EPOCH": "2025-12-23T20:00:01.000224", "MEAN_MOTION": 15.60409185, "ECCENTRICITY": 0.00012, "INCLINATION": 43, "RA_OF_ASC_NODE": 54.766, "ARG_OF_PERICENTER": 272.8384, "MEAN_ANOMALY": 351.3486, "EPHEMERIS_TYPE": 0, "CLASSIFICATION_TYPE": "U", "NORAD_CAT_ID": 66872, "ELEMENT_SET_NO": 999, "REV_AT_EPOCH": 307, "BSTAR": -0.02673, "MEAN_MOTION_DOT": -0.01982543, "MEAN_MOTION_DDOT": 0}, "tle": {"line1": "1 66872U 25281AA  25357.83334491 -.01982543  00000+0 -26730-1 0  9996", "line2": "2 66872  43.0000  54.7660 0001200 272.8384 351.3486 15.60409185  3072"}}, "geometry": {"type": "Point", "coordinates": [14.180318361965437, -30.191309953343847]}}, {"type": "Feature", "properties": {"norad_id": 66873, "name": "STARLINK-36128", "group": "last-30-days", "lat": -27.015644059570388, "lon": 19.626627958865974, "alt_km": 392.3464771785684, "timestamp": "2025-12-24T03:53:28.362819+00:00", "meta": {"OBJECT_NAME": "STARLINK-36128", "OBJECT_ID": "2025-281AB", "EPOCH": "2025-12-23T20:00:01.000224", "MEAN_MOTION": 15.60429056, "ECCENTRICITY": 0.0001295, "INCLINATION": 43.0001, "RA_OF_ASC_NODE": 54.7491, "ARG_OF_PERICENTER": 270.0841, "MEAN_ANOMALY": 359.8506, "EPHEMERIS_TYPE": 0, "CLASSIFICATION_TYPE": "U", "NORAD_CAT_ID": 66873, "ELEMENT_SET_NO": 999, "REV_AT_EPOCH": 320, "BSTAR": -0.02724, "MEAN_MOTION_DOT": -0.02017079, "MEAN_MOTION_DDOT": 0}, "tle": {"line1": "1 66873U 25281AB  25357.83334491 -.02017079  00000+0 -27240-1 0  9998", "line2": "2 66873  43.0001  54.7491 0001295 270.0841 359.8506 15.60429056  3208"}}, "geometry": {"type": "Point", "coordinates": [19.626627958865974, -27.015644059570388]}}, {"type": "Feature", "properties": {"norad_id": 66874, "name": "STARLINK-36129", "group": "last-30-days", "lat": -29.15635532217305, "lon": 16.03387530464985, "alt_km": 392.53199385802054, "timestamp": "2025-12-24T03:53:28.362831+00:00", "meta": {"OBJECT_NAME": "STARLINK-36129", "OBJECT_ID": "2025-281AC", "EPOCH": "2025-12-23T20:00:01.000224", "MEAN_MOTION": 15.60424586, "ECCENTRICITY": 0.0001165, "INCLINATION": 43.0002, "RA_OF_ASC_NODE": 54.7595, "ARG_OF_PERICENTER": 267.9191, "MEAN_ANOMALY": 358.1818, "EPHEMERIS_TYPE": 0, "CLASSIFICATION_TYPE": "U", "NORAD_CAT_ID": 66874, "ELEMENT_SET_NO": 999, "REV_AT_EPOCH": 320, "BSTAR": -0.027105, "MEAN_MOTION_DOT": -0.02007917, "MEAN_MOTION_DDOT": 0}, "tle": {"line1": "1 66874U 25281AC  25357.83334491 -.02007917  00000+0 -27105-1 0  9999", "line2": "2 66874  43.0002  54.7595 0001165 267.9191 358.1818 15.60424586  3205"}}, "geometry": {"type": "Point", "coordinates": [16.03387530464985, -29.15635532217305]}}, {"type": "Feature", "properties": {"norad_id": 66875, "name": "STARLINK-36053", "group": "last-30-days", "lat": -25.913828593756403, "lon": 21.367186612224632, "alt_km": 392.1662052052334, "timestamp": "2025-12-24T03:53:28.362841+00:00", "meta": {"OBJECT_NAME": "STARLINK-36053", "OBJECT_ID": "2025-281AD", "EPOCH": "2025-12-23T20:00:01.000224", "MEAN_MOTION": 15.60421998, "ECCENTRICITY": 0.0001355, "INCLINATION": 43.0004, "RA_OF_ASC_NODE": 54.7436, "ARG_OF_PERICENTER": 276.9045, "MEAN_ANOMALY": 354.9497, "EPHEMERIS_TYPE": 0, "CLASSIFICATION_TYPE": "U", "NORAD_CAT_ID": 66875, "ELEMENT_SET_NO": 999, "REV_AT_EPOCH": 320, "BSTAR": -0.027121, "MEAN_MOTION_DOT": -0.02008898, "MEAN_MOTION_DDOT": 0}, "tle": {"line1": "1 66875U 25281AD  25357.83334491 -.02008898  00000+0 -27121-1 0  9997", "line2": "2 66875  43.0004  54.7436 0001355 276.9045 354.9497 15.60421998  3202"}}, "geometry": {"type": "Point", "coordinates": [21.367186612224632, -25.913828593756403]}}, {"type": "Feature", "properties": {"norad_id": 66876, "name": "STARLINK-35702", "group": "last-30-days", "lat": -28.09798944328154, "lon": 17.847875053258534, "alt_km": 392.25146454714377, "timestamp": "2025-12-24T03:53:28.362851+00:00", "meta": {"OBJECT_NAME": "STARLINK-35702", "OBJECT_ID": "2025-281AE", "EPOCH": "2025-12-23T20:00:01.000224", "MEAN_MOTION": 15.60423052, "ECCENTRICITY": 0.0001513, "INCLINATION": 43.0001, "RA_OF_ASC_NODE": 54.7544, "ARG_OF_PERICENTER": 272.1594, "MEAN_ANOMALY": 355.8585, "EPHEMERIS_TYPE": 0, "CLASSIFICATION_TYPE": "U", "NORAD_CAT_ID": 66876, "ELEMENT_SET_NO": 999, "REV_AT_EPOCH": 320, "BSTAR": -0.027097, "MEAN_MOTION_DOT": -0.02007572, "MEAN_MOTION_DDOT": 0}, "tle": {"line1": "1 66876U 25281AE  25357.83334491 -.02007572  00000+0 -27097-1 0  9998", "line2": "2 66876  43.0001  54.7544 0001513 272.1594 355.8585 15.60423052  3204"}}, "geometry": {"type": "Point", "coordinates": [17.847875053258534, -28.09798944328154]}}, {"type": "Feature", "properties": {"norad_id": 66877, "name": "ZQ-3 R/B", "group": "last-30-days", "lat": -0.979070647551665, "lon": 12.534827870873384, "alt_km": 825.6231887841677, "timestamp": "2025-12-24T03:53:28.362862+00:00", "meta": {"OBJECT_NAME": "ZQ-3 R/B", "OBJECT_ID": "2025-282A", "EPOCH": "2025-12-23T18:11:12.742368", "MEAN_MOTION": 14.82080967, "ECCENTRICITY": 0.0685556, "INCLINATION": 56.9493, "RA_OF_ASC_NODE": 14.7741, "ARG_OF_PERICENTER": 239.3958, "MEAN_ANOMALY": 113.7744, "EPHEMERIS_TYPE": 0, "CLASSIFICATION_TYPE": "U", "NORAD_CAT_ID": 66877, "ELEMENT_SET_NO": 999, "REV_AT_EPOCH": 301, "BSTAR": 0.00018879, "MEAN_MOTION_DOT": 0.01092378, "MEAN_MOTION_DDOT": 7.8754e-06}, "tle": {"line1": "1 66877U 25282A   25357.75778637  .01092378  78754-5  18879-3 0  9997", "line2": "2 66877  56.9493  14.7741 0685556 239.3958 113.7744 14.82080967  3016"}}, "geometry": {"type": "Point", "coordinates": [12.534827870873384, -0.979070647551665]}}, {"type": "Feature", "properties": {"norad_id": 66878, "name": "STARLINK-35866", "group": "last-30-days", "lat": 44.877094165301884, "lon": 65.07363144160088, "alt_km": 362.07329627953277, "timestamp": "2025-12-24T03:53:28.362872+00:00", "meta": {"OBJECT_NAME": "STARLINK-35866", "OBJECT_ID": "2025-283A", "EPOCH": "2025-12-23T20:00:01.000224", "MEAN_MOTION": 15.67931447, "ECCENTRICITY": 0.0001017, "INCLINATION": 53.1592, "RA_OF_ASC_NODE": 18.3973, "ARG_OF_PERICENTER": 77.6199, "MEAN_ANOMALY": 288.1991, "EPHEMERIS_TYPE": 0, "CLASSIFICATION_TYPE": "U", "NORAD_CAT_ID": 66878, "ELEMENT_SET_NO": 999, "REV_AT_EPOCH": 421, "BSTAR": -0.019524, "MEAN_MOTION_DOT": -0.01944347, "MEAN_MOTION_DDOT": 0}, "tle": {"line1": "1 66878U 25283A   25357.83334491 -.01944347  00000+0 -19524-1 0  9997", "line2": "2 66878  53.1592  18.3973 0001017  77.6199 288.1991 15.67931447  4213"}}, "geometry": {"type": "Point", "coordinates": [65.07363144160088, 44.877094165301884]}}]}